{
  "norad_id": 67470,
  "name": "STARLINK-36454",
  "history": [
    {
      "epoch": "2026-03-28T17:06:18.373824Z",
      "apogee_km": 483.2720867577009,
      "perigee_km": 482.8004497072425,
      "latitude_deg": -2.143563316596827e-05,
      "longitude_deg": 14.886502035249427,
      "height_km": 482.58279267119406,
      "semi_major_axis_km": 6861.173268232471,
      "eccentricity": 3.437e-05,
      "inclination_deg": 43.0018,
      "raan_deg": 97.5923,
      "arg_perigee_deg": 346.3944,
      "mean_anomaly_deg": 13.6898,
      "mean_motion_rev_day": 15.27584284
    },
    {
      "epoch": "2026-03-29T00:57:04.781088Z",
      "apogee_km": 483.5219392028657,
      "perigee_km": 482.4763020580813,
      "latitude_deg": -2.1040754299820584e-05,
      "longitude_deg": -104.97539421554573,
      "height_km": 482.7683801143868,
      "semi_major_axis_km": 6861.136120630473,
      "eccentricity": 7.62e-05,
      "inclination_deg": 43.0011,
      "raan_deg": 95.746,
      "arg_perigee_deg": 270.7683,
      "mean_anomaly_deg": 89.3081,
      "mean_motion_rev_day": 15.2759669
    }
  ]
}